#aV2020  7  2  0  0  0.00000000     288 DD+AD WGS84 FIT  NGA
## 2112 345600.00000000   300.00000000 59032 0.0000000000000
+   31     1  2  3  4  5  6  7  8  9 10 11 12 13 14 15 16 17
+         18 19 20 21 22 24 25 26 27 28 29 30 31 32  0  0  0
+          0  0  0  0  0  0  0  0  0  0  0  0  0  0  0  0  0
+          0  0  0  0  0  0  0  0  0  0  0  0  0  0  0  0  0
+          0  0  0  0  0  0  0  0  0  0  0  0  0  0  0  0  0
++         2  2  2  2  2  2  2  2  2  2  2  2  2  2  2  2  2
++         2  2  2  2  2  2  2  2  2  2  2  2  2  2  0  0  0
++         0  0  0  0  0  0  0  0  0  0  0  0  0  0  0  0  0
++         0  0  0  0  0  0  0  0  0  0  0  0  0  0  0  0  0
++         0  0  0  0  0  0  0  0  0  0  0  0  0  0  0  0  0
%c cc cc ccc ccc cccc cccc cccc cccc ccccc ccccc ccccc ccccc
%c cc cc ccc ccc cccc cccc cccc cccc ccccc ccccc ccccc ccccc
%f  0.0000000  0.000000000  0.00000000000  0.000000000000000
%f  0.0000000  0.000000000  0.00000000000  0.000000000000000
%i    0    0    0    0      0      0      0      0         0
%i    0    0    0    0      0      0      0      0         0
/*      NGA, ST. LOUIS,MO.                                  
/*   EPHEMERIS COMPUTED FROM 2 DAYS OF DATA                 
/*   EPOCHA v5 SMOOTHER                                     
/*   G1762 IERS2010 SATAF SATAPC                            
*  2020  7  2 22  5  0.00000000
P  1    -82.224896  15281.120077 -21915.963729     20.372532                    
V  1 -26354.135787   7002.628928   5360.846245      0.057053                    
P  2  20070.872177 -14744.903292   9797.679768   -481.318680                    
V  2  11684.017748  -1710.042007 -28419.253326     -0.058122                    
P  3   8562.357080  21216.131810 -13650.073103   -227.663833                    
V  3 -13779.153791 -10427.526007 -24872.125243     -0.118284                    
P  4   1073.821997  24258.483303  10735.407774   -109.917061                    
V  4  -6065.179045  12459.962226 -27610.455853     -0.047008                    
P  5  10000.854412 -11596.638608  21558.282970    -15.845414                    
V  5  20753.287616  18407.175563    466.680134     -0.007769                    
P  6  25770.007676  -6214.518153  -1935.223765   -297.589140                    
V  6  -1801.939737   2778.679468 -32029.680183     -0.054460                    
P  7  18355.370538   8096.553668  17959.310661   -318.233346                    
V  7 -20824.198016   7291.029927  17833.349990     -0.088139                    
P  8  -6190.409267  25678.343405    533.461752    -39.617453                    
V  8  -2555.924539  -1265.497529  32102.408908     -0.012874                    
P  9   9879.618517  16170.489393  18555.498208   -246.851827                    
V  9  -6796.184570  22756.058672 -16184.962387     -0.066285                    
P 10 -21787.778817  -8674.212600 -12609.268826   -388.513100                    
V 10 -10252.729038 -12515.719066  25907.117893     -0.108792                    
P 11  -7251.823303  21782.640393 -14113.953210   -232.089894                    
V 11 -14443.553397   9637.688914  22775.770954      0.105997                    
P 12  -7112.037148 -21715.150153 -13904.206065     98.749648                    
V 12  12736.174233  11619.639364 -24939.465328     -0.048613                    
P 13  13341.523777 -21861.349255   6721.884371     23.367749                    
V 13   -699.461449   9058.173479  30411.160094      0.032628                    
P 14 -16443.430082  10371.329554 -17659.724034     -1.549767                    
V 14   5528.967452 -22611.477004 -18250.269804      0.027821                    
P 15   3109.118192 -26168.081892   -485.266876   -220.202370                    
V 15   4183.981188    300.086839  31243.491525      0.025952                    
P 16  -8705.902541  12197.412935  21672.276959   -177.824203                    
V 16 -18869.424179 -20741.656714   4481.973251     -0.047267                    
P 17  15166.425774  -1012.217926 -21354.905649    289.952274                    
V 17  -7703.111285  26988.180307  -6663.644281      0.058848                    
P 18 -17978.387221  -8008.933361  17837.046076    236.247067                    
V 18  21488.284967  -7332.606744  18325.730178      0.099344                    
P 19  16627.040372  -8893.443511 -18991.205280   -137.257260                    
V 19  -6852.579385  22446.289216 -16816.017269      0.050883                    
P 20 -22073.866692 -14956.352181  -1152.806256    527.384851                    
V 20    909.844756  -3584.783068  30974.801129     -0.000853                    
P 21 -25008.592028   2445.161086   8929.153300     18.940896                    
V 21   8773.053410  -6255.559425  28998.295556      0.046359                    
P 22   2065.385695  19037.023923 -18257.053546   -774.571502                    
V 22 -19647.751985 -13310.264469 -15775.355125      0.023725                    
P 24   1591.229155 -16755.571139 -20671.517251    -15.139814                    
V 24  24811.166846  -7767.604433   8655.604589     -0.005086                    
P 25 -16053.450690 -20660.966329  -5557.271235     19.087637                    
V 25   6456.903646   2939.501956 -30654.040258      0.040013                    
P 26 -18346.728439   2126.583829  19131.352730    236.282225                    
V 26 -17261.118905 -17217.505525 -14390.654138      0.069032                    
P 27 -12343.904325  20728.954500  10571.136260   -335.888309                    
V 27   1002.747899 -13884.501006  28335.740390     -0.097342                    
P 28  20309.624851   9268.558307 -13693.058411    703.254475                    
V 28  10528.630727  15234.524722  25027.558408     -0.035134                    
P 29  -5212.199765 -19992.222412  16624.663705   -141.426179                    
V 29   7722.680418 -19746.964843 -21296.274062     -0.086153                    
P 30  24882.996093    860.383498   9599.052898   -254.030369                    
V 30 -10969.073391   5897.283458  27826.820727     -0.078110                    
P 31 -25962.520460   6688.375781   -236.176514    -53.029932                    
V 31   -410.541384  -2516.428231 -31380.012969     -0.025040                    
P 32 -15834.128801   2344.184604 -21086.455936    310.459209                    
V 32   5464.080617 -26468.290277  -7162.373067      0.064797                    
EOF
